SCS-01 D                
1 63985U 25100D   26068.75607686  .00032471  00000+0  10528-2 0  9990
2 63985  97.3730 145.4097 0006346 266.2302  93.8214 15.31902149 45621
STARLINK-35041          
1 66188U 25243M   26068.76185840  .00025029  00000+0  85425-3 0  9990
2 66188  53.1586 245.0016 0000905 118.8471 241.2620 15.30203824 20660
